NORAD_CAT_ID,OBJECT_NAME,OBJECT_TYPE,EPOCH,MEAN_MOTION,ECCENTRICITY,INCLINATION,RA_OF_ASC_NODE,ARG_OF_PERICENTER,MEAN_ANOMALY,BSTAR,MEAN_MOTION_DOT,MEAN_MOTION_DDOT,TLE_LINE0,TLE_LINE1,TLE_LINE2,SEMIMAJOR_AXIS,PERIOD,APOGEE,PERIGEE,DECAYED
53018.0,STARLINK-4279,PAYLOAD,2024-04-10 22:43:28,15.0884374,0.0001298,53.218,336.6725,77.095,283.0187,9.4284e-05,1.213e-05,0.0,0 STARLINK-4279,1 53018U 22076AJ  24101.94686314  .00001213  00000-0  94284-4 0  9991,2 53018  53.2180 336.6725 0001298  77.0950 283.0187 15.08843740 97643,6917.869,95.437,540.632,538.836,0.0
53018.0,STARLINK-4279,PAYLOAD,2024-04-11 08:15:47,15.08839753,0.0001254,53.2174,334.8881,84.3595,275.754,8.6382e-06,-1.5e-06,0.0,0 STARLINK-4279,1 53018U 22076AJ  24102.34430485 -.00000150  00000-0  86382-5 0  9993,2 53018  53.2174 334.8881 0001254  84.3595 275.7540 15.08839753 98176,6917.881,95.438,540.614,538.879,0.0
53018.0,STARLINK-4279,PAYLOAD,2024-04-11 20:58:53,15.08835226,0.000132,53.2174,332.5094,79.9445,280.1696,5.8332e-05,6.4e-06,0.0,0 STARLINK-4279,1 53018U 22076AJ  24102.87422895  .00000640  00000-0  58332-4 0  9993,2 53018  53.2174 332.5094 0001320  79.9445 280.1696 15.08835226 97784,6917.895,95.438,540.673,538.847,0.0
53018.0,STARLINK-4279,PAYLOAD,2024-04-12 22:25:03,15.08840939,0.0001347,53.2177,327.7518,95.6709,264.4437,4.0663e-05,3.59e-06,0.0,0 STARLINK-4279,1 53018U 22076AJ  24103.93406760  .00000359  00000-0  40663-4 0  9999,2 53018  53.2177 327.7518 0001347  95.6709 264.4437 15.08840939 97944,6917.878,95.437,540.674,538.811,0.0
53018.0,STARLINK-4279,PAYLOAD,2024-04-13 00:00:26,15.08842243,0.0001207,53.2169,327.4537,84.8518,275.2612,6.8566e-05,8.04e-06,0.0,0 STARLINK-4279,1 53018U 22076AJ  24104.00030676  .00000804  00000-0  68566-4 0  9994,2 53018  53.2169 327.4537 0001207  84.8518 275.2612 15.08842243 98425,6917.874,95.437,540.574,538.904,0.0
53018.0,STARLINK-4279,PAYLOAD,2024-04-13 20:40:26,15.08853373,0.0001001,53.2166,323.5853,114.9438,245.1659,-4.5634e-05,-1.014e-05,0.0,0 STARLINK-4279,1 53018U 22076AJ  24104.86141915 -.00001014  00000-0 -45634-4 0  9994,2 53018  53.2166 323.5853 0001001 114.9438 245.1659 15.08853373 98083,6917.84,95.437,540.397,539.012,0.0
53018.0,STARLINK-4279,PAYLOAD,2024-04-13 23:51:12,15.08853854,0.000101,53.2174,322.9876,99.4514,260.6592,3.6657e-05,2.96e-06,0.0,0 STARLINK-4279,1 53018U 22076AJ  24104.99389885  .00000296  00000-0  36657-4 0  9992,2 53018  53.2174 322.9876 0001010  99.4514 260.6592 15.08853854 98578,6917.838,95.437,540.402,539.004,0.0
53018.0,STARLINK-4279,PAYLOAD,2024-04-14 20:31:14,15.08832076,0.0001262,53.2191,319.1166,121.4926,238.6189,0.00031087,4.662e-05,0.0,0 STARLINK-4279,1 53018U 22076AJ  24105.85502926  .00004662  00000-0  31087-3 0  9993,2 53018  53.2191 319.1166 0001262 121.4926 238.6189 15.08832076 98704,6917.905,95.438,540.643,538.897,0.0
53018.0,STARLINK-4279,PAYLOAD,2024-04-14 23:42:00,15.08832029,0.0001278,53.2191,318.5233,120.4733,239.6385,0.00029058,4.339e-05,0.0,0 STARLINK-4279,1 53018U 22076AJ  24105.98750992  .00004339  00000-0  29058-3 0  9991,2 53018  53.2191 318.5233 0001278 120.4733 239.6385 15.08832029 98251,6917.905,95.438,540.654,538.886,0.0
53018.0,STARLINK-4279,PAYLOAD,2024-04-15 20:22:00,15.08850123,0.0001478,53.2197,314.6576,141.9957,218.114,4.3839e-05,4.1e-06,0.0,0 STARLINK-4279,1 53018U 22076AJ  24106.84861925  .00000410  00000-0  43839-4 0  9996,2 53018  53.2197 314.6576 0001478 141.9957 218.1140 15.08850123 98854,6917.849,95.437,540.737,538.692,0.0
53018.0,STARLINK-4279,PAYLOAD,2024-04-15 23:32:47,15.08847108,0.000123,53.2188,314.0662,120.4728,239.6386,0.00012382,1.684e-05,0.0,0 STARLINK-4279,1 53018U 22076AJ  24106.98110285  .00001684  00000-0  12382-3 0  9999,2 53018  53.2188 314.0662 0001230 120.4728 239.6386 15.08847108 98408,6917.859,95.437,540.575,538.873,0.0
53018.0,STARLINK-4279,PAYLOAD,2024-04-16 20:12:48,15.08847524,0.0001088,53.2176,310.203,94.1526,265.959,0.00018461,2.652e-05,0.0,0 STARLINK-4279,1 53018U 22076AJ  24107.84222431  .00002652  00000-0  18461-3 0  9992,2 53018  53.2176 310.2030 0001088  94.1526 265.9590 15.08847524 99004,6917.857,95.437,540.475,538.97,0.0
53018.0,STARLINK-4279,PAYLOAD,2024-04-16 23:23:34,15.08849693,0.0001083,53.2176,309.6074,93.2569,266.8547,0.00022179,3.245e-05,0.0,0 STARLINK-4279,1 53018U 22076AJ  24107.97470299  .00003245  00000-0  22179-3 0  9993,2 53018  53.2176 309.6074 0001083  93.2569 266.8547 15.08849693 98556,6917.851,95.437,540.465,538.967,0.0
53018.0,STARLINK-4279,PAYLOAD,2024-04-17 20:03:35,15.08835835,0.0001013,53.2176,305.7445,94.6557,265.4551,-7.963e-05,-1.555e-05,0.0,0 STARLINK-4279,1 53018U 22076AJ  24108.83583280 -.00001555  00000-0 -79630-4 0  9993,2 53018  53.2176 305.7445 0001013  94.6557 265.4551 15.08835835 99150,6917.893,95.438,540.459,539.057,0.0
53018.0,STARLINK-4279,PAYLOAD,2024-04-18 11:57:27,15.08832191,0.0001061,53.2172,302.7627,96.2368,263.8745,4.4384e-05,4.19e-06,0.0,0 STARLINK-4279,1 53018U 22076AJ  24109.49823875  .00000419  00000-0  44384-4 0  9997,2 53018  53.2172 302.7627 0001061  96.2368 263.8745 15.08832191 98783,6917.904,95.438,540.503,539.035,0.0
53018.0,STARLINK-4279,PAYLOAD,2024-04-18 18:18:59,15.08848201,0.0001059,53.2171,301.5831,95.8237,264.2875,0.00026569,3.944e-05,0.0,0 STARLINK-4279,1 53018U 22076AJ  24109.76319136  .00003944  00000-0  26569-3 0  9997,2 53018  53.2171 301.5831 0001059  95.8237 264.2875 15.08848201 99298,6917.855,95.437,540.453,538.988,0.0
53018.0,STARLINK-4279,PAYLOAD,2024-04-19 19:45:10,15.08848585,0.0001277,53.2175,296.8279,64.2826,295.8298,0.00028897,4.315e-05,0.0,0 STARLINK-4279,1 53018U 22076AJ  24110.82303452  .00004315  00000-0  28897-3 0  9999,2 53018  53.2175 296.8279 0001277  64.2826 295.8298 15.08848585 99452,6917.854,95.437,540.603,538.836,0.0
53018.0,STARLINK-4279,PAYLOAD,2024-04-19 22:55:56,15.08854371,0.0001196,53.217,296.2239,72.7776,287.3347,0.00039488,6.005e-05,0.0,0 STARLINK-4279,1 53018U 22076AJ  24110.95551110  .00006005  00000-0  39488-3 0  9995,2 53018  53.2170 296.2239 0001196  72.7776 287.3347 15.08854371 99007,6917.836,95.437,540.529,538.874,0.0
53018.0,STARLINK-4279,PAYLOAD,2024-04-20 21:11:18,15.08873001,0.0001378,53.2179,292.0586,80.0046,280.1102,0.00082859,0.00012935,0.0,0 STARLINK-4279,1 53018U 22076AJ  24111.88285783  .00012935  00000-0  82859-3 0  9997,2 53018  53.2179 292.0586 0001378  80.0046 280.1102 15.08873001 99145,6917.78,95.435,540.598,538.691,0.0
53018.0,STARLINK-4279,PAYLOAD,2024-04-21 11:29:46,15.08844836,0.0001019,53.2172,289.3849,120.0638,240.0455,-0.00032577,-5.469e-05,0.0,0 STARLINK-4279,1 53018U 22076AJ  24112.47901616 -.00005469  00000-0 -32577-3 0  9991,2 53018  53.2172 289.3849 0001019 120.0638 240.0455 15.08844836 99233,6917.866,95.437,540.436,539.026,0.0
53018.0,STARLINK-4279,PAYLOAD,2024-04-21 19:26:42,15.08858195,0.0001109,53.2165,287.9025,80.9607,279.1511,0.0002452,3.619e-05,0.0,0 STARLINK-4279,1 53018U 22076AJ  24112.81021317  .00003619  00000-0  24520-3 0  9992,2 53018  53.2165 287.9025 0001109  80.9607 279.1511 15.08858195 99751,6917.825,95.436,540.457,538.923,0.0
53018.0,STARLINK-4279,PAYLOAD,2024-04-22 11:20:34,15.08826304,0.0001358,53.2174,284.9281,92.8187,267.296,-0.00014709,-2.627e-05,0.0,0 STARLINK-4279,1 53018U 22076AJ  24113.47262568 -.00002627  00000-0 -14709-3 0  9998,2 53018  53.2174 284.9281 0001358  92.8187 267.2960 15.08826304 99857,6917.922,95.438,540.727,538.848,0.0
53018.0,STARLINK-4279,PAYLOAD,2024-04-22 17:42:07,15.08823157,0.0001149,53.217,283.7387,83.936,276.1763,0.0001299,1.779e-05,0.0,0 STARLINK-4279,1 53018U 22076AJ  24113.73758980  .00001779  00000-0  12990-3 0  9990,2 53018  53.2170 283.7387 0001149  83.9360 276.1763 15.08823157 99425,6917.932,95.439,540.592,539.002,0.0
53018.0,STARLINK-4279,PAYLOAD,2024-04-23 11:11:23,15.08820942,0.0001229,53.2181,280.4676,77.236,282.877,0.00022945,3.364e-05,0.0,0 STARLINK-4279,1 53018U 22076AJ  24114.46624299  .00003364  00000-0  22945-3 0  9999,2 53018  53.2181 280.4676 0001229  77.2360 282.8770 15.08820942100005,6917.939,95.439,540.654,538.953,0.0
53018.0,STARLINK-4279,PAYLOAD,2024-04-23 14:22:09,15.08826114,0.000128,53.2168,279.8749,61.3001,298.812,0.00021672,3.162e-05,0.0,0 STARLINK-4279,1 53018U 22076AJ  24114.59872317  .00003162  00000-0  21672-3 0  9991,2 53018  53.2168 279.8749 0001280  61.3001 298.8120 15.08826114 99556,6917.923,95.438,540.673,538.902,0.0
53018.0,STARLINK-4279,PAYLOAD,2024-04-23 17:32:55,15.08832012,0.0001384,53.2175,279.2807,66.689,293.4248,0.00037175,5.632e-05,0.0,0 STARLINK-4279,1 53018U 22076AJ  24114.73120306  .00005632  00000-0  37175-3 0  9990,2 53018  53.2175 279.2807 0001384  66.6890 293.4248 15.08832012 99570,6917.905,95.438,540.727,538.812,0.0
53018.0,STARLINK-4279,PAYLOAD,2024-04-24 14:12:56,15.08841805,0.00015,53.2189,275.4172,103.926,256.1899,0.00047757,7.321e-05,0.0,0 STARLINK-4279,1 53018U 22076AJ  24115.59232503  .00007321  00000-0  47757-3 0  9992,2 53018  53.2189 275.4172 0001500 103.9260 256.1899 15.08841805 99707,6917.875,95.437,540.778,538.702,0.0
53018.0,STARLINK-4279,PAYLOAD,2024-04-24 20:34:28,15.08854948,0.0001538,53.2179,274.2207,122.9854,237.1287,0.0006628,0.0001028,0.0,0 STARLINK-4279,1 53018U 22076AJ  24115.85727864  .00010280  00000-0  66280-3 0  9990,2 53018  53.2179 274.2207 0001538 122.9854 237.1287 15.08854948100214,6917.835,95.437,540.764,538.636,0.0
53018.0,STARLINK-4279,PAYLOAD,2024-04-25 10:52:57,15.08830098,8.93e-05,53.2193,271.5505,93.3753,266.7342,-0.00010004,-1.879e-05,0.0,0 STARLINK-4279,1 53018U 22076AJ  24116.45344771 -.00001879  00000-0 -10004-3 0  9998,2 53018  53.2193 271.5505 0000893  93.3753 266.7342 15.08830098100303,6917.911,95.438,540.393,539.158,0.0
53018.0,STARLINK-4279,PAYLOAD,2024-04-25 14:03:43,15.08843945,0.0001539,53.2176,270.9511,120.7404,239.3739,0.00025014,3.696e-05,0.0,0 STARLINK-4279,1 53018U 22076AJ  24116.58592324  .00003696  00000-0  25014-3 0  9995,2 53018  53.2176 270.9511 0001539 120.7404 239.3739 15.08843945 99858,6917.868,95.437,540.798,538.669,0.0
